OBJECT_NAME,OBJECT_ID,EPOCH,MEAN_MOTION,ECCENTRICITY,INCLINATION,RA_OF_ASC_NODE,ARG_OF_PERICENTER,MEAN_ANOMALY,EPHEMERIS_TYPE,CLASSIFICATION_TYPE,NORAD_CAT_ID,ELEMENT_SET_NO,REV_AT_EPOCH,BSTAR,MEAN_MOTION_DOT,MEAN_MOTION_DDOT
DMSP 5D-3 F16 (USA 172),2003-048A,2026-07-19T20:28:24.319200,14.14484701,.0007982,98.9896,224.8963,59.6833,43.2128,0,U,28054,999,17410,-.96118E-5,-.64E-6,0
METEOSAT-9 (MSG-2),2005-049B,2026-07-19T04:50:21.734016,1.00274349,.0002395,9.4322,53.8482,357.9817,3.4307,0,U,28912,999,732,0,.114E-5,0
DMSP 5D-3 F17 (USA 191),2006-050A,2026-07-19T20:07:05.884320,14.14996271,.0009456,98.7389,206.7417,329.0074,31.0541,0,U,29522,999,1704,.93939E-5,-.25E-6,0
FENGYUN 3A,2008-026A,2026-07-19T19:43:49.014048,14.19577104,.0009497,98.6885,141.0459,39.7759,320.4112,0,U,32958,999,94003,.32616E-4,.25E-6,0
EWS-G3 (GOES 14),2009-033A,2026-07-19T20:36:03.046176,1.00096122,.0002108,1.7720,82.6390,39.2156,246.9395,0,U,35491,999,691,0,-.363E-5,0
DMSP 5D-3 F18 (USA 210),2009-057A,2026-07-19T21:10:38.595360,14.14913729,.0011505,98.9060,181.5842,152.5750,207.6033,0,U,35951,999,86421,.10812E-3,.164E-5,0
EWS-G2 (GOES 15),2010-008A,2026-07-19T20:19:19.650144,1.00269496,.0005434,1.3655,82.4124,54.4587,168.8503,0,U,36411,999,5996,0,.19E-6,0
COMS 1,2010-032A,2026-07-19T11:12:20.848608,0.99166959,.00113959,4.8863,74.9675,15.0539,320.3988,0,U,36744,999,5140,0,-.211E-5,0
FENGYUN 3B,2010-059A,2026-07-19T20:15:10.526112,14.14848198,.0023177,98.9598,246.9939,94.1322,15.8313,0,U,37214,999,81204,.72394E-4,.95E-6,0
SUOMI NPP,2011-061A,2026-07-19T20:01:45.181344,14.19523169,.0000979,98.7955,141.4888,192.7918,167.3233,0,U,37849,999,76307,.30113E-4,.19E-6,0
METEOSAT-10 (MSG-3),2012-035B,2026-07-19T20:01:10.216128,1.00272284,.0001377,4.7472,60.8597,17.7737,159.3188,0,U,38552,999,5118,0,-.13E-6,0
METOP-B,2012-049A,2026-07-19T20:25:23.306016,14.21447199,.000125,98.6486,251.6955,229.9230,130.1838,0,U,38771,999,71790,.35394E-4,.34E-6,0
INSAT-3D,2013-038B,2026-07-19T18:29:22.235136,1.00273998,.0001007,2.0084,82.1300,44.5443,217.7107,0,U,39216,999,4740,0,-.343E-5,0
FENGYUN 3C,2013-052A,2026-07-19T21:45:57.138048,14.15761311,.0013521,98.5003,173.2834,291.3924,68.5808,0,U,39260,999,66319,.37352E-4,.32E-6,0
METEOR-M 2,2014-037A,2026-07-19T21:02:40.579584,14.21469065,.0004839,98.5141,175.4613,311.1821,48.8939,0,U,40069,999,62396,-.1313E-3,-.329E-5,0
HIMAWARI-8,2014-060A,2026-07-19T18:48:38.666304,1.00270366,.0001246,0.0152,47.5152,115.2730,197.5966,0,U,40267,999,4308,0,-.279E-5,0
FENGYUN 2G,2014-090A,2026-07-19T15:21:36.355968,1.00279249,.0003943,5.7192,72.4242,173.6464,21.2039,0,U,40367,999,4232,0,-.309E-5,0
METEOSAT-11 (MSG-4),2015-034A,2026-07-19T20:03:54.953280,1.00273308,.0002051,3.2801,70.8981,355.1707,181.7937,0,U,40732,999,754,0,.57E-6,0
ELEKTRO-L 2,2015-074A,2026-07-19T19:57:10.600416,1.00272157,.000088,6.7743,70.1224,225.8143,286.4773,0,U,41105,999,3883,0,-.124E-5,0
SENTINEL-3A,2016-011A,2026-07-19T19:50:47.386176,14.26740566,.0001317,98.6233,267.7391,89.0426,271.0905,0,U,41335,999,54271,.33164E-4,.37E-6,0
INSAT-3DR,2016-054A,2026-07-19T20:22:19.362144,1.00271349,.0010385,0.0815,89.1189,180.4405,47.6373,0,U,41752,999,3614,0,-.8E-6,0
HIMAWARI-9,2016-064A,2026-07-19T18:48:38.666304,1.00275003,.0002147,0.0374,240.7556,289.6962,190.0063,0,U,41836,999,3553,0,-.278E-5,0
GOES 16,2016-071A,2026-07-19T14:38:38.662944,1.00271519,.0000621,0.4153,85.4573,78.0271,248.8712,0,U,41866,999,3542,0,-.95E-6,0
FENGYUN 4A,2016-077A,2026-07-19T19:35:57.440256,1.00266020,.000828,2.4036,79.9132,159.6242,115.7237,0,U,41882,999,3525,0,-.362E-5,0
CYGFM05,2016-078A,2026-07-19T20:54:55.948032,15.57999934,.0005319,34.9573,43.9264,88.6074,271.5260,0,U,41884,999,53385,.20458E-3,.15836E-3,0
CYGFM04,2016-078B,2026-07-19T19:11:48.749856,15.63274012,.0004234,34.9331,10.3823,139.1895,220.9148,0,U,41885,999,53410,.21124E-3,.20059E-3,0
CYGFM02,2016-078C,2026-07-19T19:09:47.908224,15.66597334,.000497,34.9412,3.9203,140.4749,219.6342,0,U,41886,999,53428,.23327E-3,.2533E-3,0
CYGFM01,2016-078D,2026-07-19T20:17:25.470816,15.58723700,.0005224,34.9402,44.8834,80.1375,279.9939,0,U,41887,999,53380,.20641E-3,.16426E-3,0
CYGFM08,2016-078E,2026-07-19T20:59:01.603104,15.61638702,.0005978,34.9437,23.3710,120.9672,239.1641,0,U,41888,999,53408,.22753E-3,.20276E-3,0
CYGFM07,2016-078G,2026-07-19T19:57:05.306688,15.61746801,.0004644,34.9455,11.9703,139.0403,221.0672,0,U,41890,999,53410,.22396E-3,.20034E-3,0
CYGFM03,2016-078H,2026-07-19T19:15:40.547232,15.61730269,.000432,34.9410,14.0906,120.7282,239.3869,0,U,41891,999,53407,.21776E-3,.19463E-3,0
